[{"name":"Sara Day","address":"845 Petterle Park","city":"Dallas","state":"TX","postalCode":"75241","phoneNumber":"1-(972)139-8211"},
{"name":"Gloria Harper","address":"85 Old Gate Pass","city":"Fresno","state":"CA","postalCode":"93773","phoneNumber":"1-(559)167-4419"},
{"name":"Janet Morgan","address":"72 Lillian Way","city":"Greeley","state":"CO","postalCode":"80638","phoneNumber":"1-(970)434-4558"},
{"name":"Jason Morris","address":"95 Scofield Alley","city":"Wilmington","state":"DE","postalCode":"19810","phoneNumber":"1-(302)931-3962"},
{"name":"Debra Rodriguez","address":"36 Esker Court","city":"Brooklyn","state":"NY","postalCode":"11231","phoneNumber":"1-(718)253-7725"},
{"name":"Jesse Day","address":"7096 Mandrake Parkway","city":"Austin","state":"TX","postalCode":"78783","phoneNumber":"1-(512)591-6105"},
{"name":"Marilyn Knight","address":"8840 Huxley Junction","city":"Dallas","state":"TX","postalCode":"75367","phoneNumber":"1-(214)676-9267"},
{"name":"Paul Richardson","address":"87513 Westend Avenue","city":"Pensacola","state":"FL","postalCode":"32526","phoneNumber":"1-(850)579-7194"},
{"name":"Raymond Marshall","address":"48 Hudson Place","city":"Topeka","state":"KS","postalCode":"66611","phoneNumber":"1-(785)438-5979"},
{"name":"Timothy Simmons","address":"9381 Helena Park","city":"Maple Plain","state":"MN","postalCode":"55572","phoneNumber":"1-(763)461-3994"}]
